{
  "type": "FeatureCollection",
  "features": [
    {
      "type": "Feature",
      "properties": {
        "norad_id": 36744,
        "name": "COMS 1",
        "group": "weather",
        "lat": -3.6599314080943626,
        "lon": 20.21250316603378,
        "alt_km": 35787.76696400072,
        "timestamp": "2025-12-09T11:33:54.442085+00:00",
        "meta_object_name": "COMS 1",
        "meta_object_id": "2010-032A",
        "meta_epoch": "2025-12-08T23:09:51.521760",
        "meta_mean_motion": 1.0027117,
        "meta_eccentricity": 0.0001135,
        "meta_inclination": 4.3321,
        "meta_ra_of_asc_node": 78.0387,
        "meta_arg_of_pericenter": 200.7728,
        "meta_mean_anomaly": 274.7928,
        "meta_ephemeris_type": 0,
        "meta_classification_type": "U",
        "meta_norad_cat_id": 36744,
        "meta_element_set_no": 999,
        "meta_rev_at_epoch": 4918,
        "meta_bstar": 0,
        "meta_mean_motion_dot": -3.43e-06,
        "meta_mean_motion_ddot": 0,
        "tle_line1": "1 36744U 10032A   25342.96517965 -.00000343  00000+0  00000+0 0  9993",
        "tle_line2": "2 36744   4.3321  78.0387 0001135 200.7728 274.7928  1.00271170 49188"
      },
      "geometry": {
        "type": "Point",
        "coordinates": [
          20.21250316603378,
          -3.6599314080943626
        ]
      }
    },
    {
      "type": "Feature",
      "properties": {
        "norad_id": 37214,
        "name": "FENGYUN 3B",
        "group": "weather",
        "lat": 10.704770649335478,
        "lon": 21.721121088074817,
        "alt_km": 828.4131641403537,
        "timestamp": "2025-12-09T11:33:54.442097+00:00",
        "meta_object_name": "FENGYUN 3B",
        "meta_object_id": "2010-059A",
        "meta_epoch": "2025-12-09T05:08:09.575808",
        "meta_mean_motion": 14.14786993,
        "meta_eccentricity": 0.0022242,
        "meta_inclination": 98.9906,
        "meta_ra_of_asc_node": 23.1664,
        "meta_arg_of_pericenter": 7.8071,
        "meta_mean_anomaly": 79.5097,
        "meta_ephemeris_type": 0,
        "meta_classification_type": "U",
        "meta_norad_cat_id": 37214,
        "meta_element_set_no": 999,
        "meta_rev_at_epoch": 78056,
        "meta_bstar": -3.0527e-05,
        "meta_mean_motion_dot": -1.04e-06,
        "meta_mean_motion_ddot": 0,
        "tle_line1": "1 37214U 10059A   25343.21399972 -.00000104  00000+0 -30527-4 0  9998",
        "tle_line2": "2 37214  98.9906  23.1664 0022242   7.8071  79.5097 14.14786993780562"
      },
      "geometry": {
        "type": "Point",
        "coordinates": [
          21.721121088074817,
          10.704770649335478
        ]
      }
    },
    {
      "type": "Feature",
      "properties": {
        "norad_id": 37849,
        "name": "SUOMI NPP",
        "group": "weather",
        "lat": 23.13734896233031,
        "lon": 104.63797030749114,
        "alt_km": 825.1856456394889,
        "timestamp": "2025-12-09T11:33:54.442108+00:00",
        "meta_object_name": "SUOMI NPP",
        "meta_object_id": "2011-061A",
        "meta_epoch": "2025-12-09T04:03:49.967712",
        "meta_mean_motion": 14.19512488,
        "meta_eccentricity": 0.000213,
        "meta_inclination": 98.7769,
        "meta_ra_of_asc_node": 280.5431,
        "meta_arg_of_pericenter": 126.4439,
        "meta_mean_anomaly": 233.6934,
        "meta_ephemeris_type": 0,
        "meta_classification_type": "U",
        "meta_norad_cat_id": 37849,
        "meta_element_set_no": 999,
        "meta_rev_at_epoch": 73148,
        "meta_bstar": 0.00010222,
        "meta_mean_motion_dot": 1.71e-06,
        "meta_mean_motion_ddot": 0,
        "tle_line1": "1 37849U 11061A   25343.16932833  .00000171  00000+0  10222-3 0  9990",
        "tle_line2": "2 37849  98.7769 280.5431 0002130 126.4439 233.6934 14.19512488731483"
      },
      "geometry": {
        "type": "Point",
        "coordinates": [
          104.63797030749114,
          23.13734896233031
        ]
      }
    },
    {
      "type": "Feature",
      "properties": {
        "norad_id": 38552,
        "name": "METEOSAT-10 (MSG-3)",
        "group": "weather",
        "lat": -0.7777145043888614,
        "lon": -107.93971937151284,
        "alt_km": 35783.155457435154,
        "timestamp": "2025-12-09T11:33:54.442120+00:00",
        "meta_object_name": "METEOSAT-10 (MSG-3)",
        "meta_object_id": "2012-035B",
        "meta_epoch": "2025-12-09T01:35:17.616768",
        "meta_mean_motion": 1.0027383,
        "meta_eccentricity": 8.73e-05,
        "meta_inclination": 4.2204,
        "meta_ra_of_asc_node": 61.7307,
        "meta_arg_of_pericenter": 239.048,
        "meta_mean_anomaly": 161.2485,
        "meta_ephemeris_type": 0,
        "meta_classification_type": "U",
        "meta_norad_cat_id": 38552,
        "meta_element_set_no": 999,
        "meta_rev_at_epoch": 4895,
        "meta_bstar": 0,
        "meta_mean_motion_dot": -5e-08,
        "meta_mean_motion_ddot": 0,
        "tle_line1": "1 38552U 12035B   25343.06617612 -.00000005  00000+0  00000+0 0  9994",
        "tle_line2": "2 38552   4.2204  61.7307 0000873 239.0480 161.2485  1.00273830 48952"
      },
      "geometry": {
        "type": "Point",
        "coordinates": [
          -107.93971937151284,
          -0.7777145043888614
        ]
      }
    },
    {
      "type": "Feature",
      "properties": {
        "norad_id": 38771,
        "name": "METOP-B",
        "group": "weather",
        "lat": -13.43627306212911,
        "lon": 35.587322983468,
        "alt_km": 827.0071767643858,
        "timestamp": "2025-12-09T11:33:54.442132+00:00",
        "meta_object_name": "METOP-B",
        "meta_object_id": "2012-049A",
        "meta_epoch": "2025-12-09T03:10:54.631200",
        "meta_mean_motion": 14.21406209,
        "meta_eccentricity": 0.0002761,
        "meta_inclination": 98.6803,
        "meta_ra_of_asc_node": 33.1524,
        "meta_arg_of_pericenter": 152.0396,
        "meta_mean_anomaly": 208.093,
        "meta_ephemeris_type": 0,
        "meta_classification_type": "U",
        "meta_norad_cat_id": 38771,
        "meta_element_set_no": 999,
        "meta_rev_at_epoch": 68626,
        "meta_bstar": 0.00011745,
        "meta_mean_motion_dot": 2.13e-06,
        "meta_mean_motion_ddot": 0,
        "tle_line1": "1 38771U 12049A   25343.13257675  .00000213  00000+0  11745-3 0  9991",
        "tle_line2": "2 38771  98.6803  33.1524 0002761 152.0396 208.0930 14.21406209686261"
      },
      "geometry": {
        "type": "Point",
        "coordinates": [
          35.587322983468,
          -13.43627306212911
        ]
      }
    },
    {
      "type": "Feature",
      "properties": {
        "norad_id": 39216,
        "name": "INSAT-3D",
        "group": "weather",
        "lat": -1.2732411335994462,
        "lon": 21.51395121394131,
        "alt_km": 35791.36557638394,
        "timestamp": "2025-12-09T11:33:54.442144+00:00",
        "meta_object_name": "INSAT-3D",
        "meta_object_id": "2013-038B",
        "meta_epoch": "2025-12-08T22:46:48.758016",
        "meta_mean_motion": 1.00271425,
        "meta_eccentricity": 0.0001672,
        "meta_inclination": 1.4352,
        "meta_ra_of_asc_node": 85.0274,
        "meta_arg_of_pericenter": 162.1102,
        "meta_mean_anomaly": 302.0591,
        "meta_ephemeris_type": 0,
        "meta_classification_type": "U",
        "meta_norad_cat_id": 39216,
        "meta_element_set_no": 999,
        "meta_rev_at_epoch": 4517,
        "meta_bstar": 0,
        "meta_mean_motion_dot": -3.37e-06,
        "meta_mean_motion_ddot": 0,
        "tle_line1": "1 39216U 13038B   25342.94917544 -.00000337  00000+0  00000+0 0  9997",
        "tle_line2": "2 39216   1.4352  85.0274 0001672 162.1102 302.0591  1.00271425 45172"
      },
      "geometry": {
        "type": "Point",
        "coordinates": [
          21.51395121394131,
          -1.2732411335994462
        ]
      }
    },
    {
      "type": "Feature",
      "properties": {
        "norad_id": 39260,
        "name": "FENGYUN 3C",
        "group": "weather",
        "lat": -58.36428302591844,
        "lon": -24.672341271104706,
        "alt_km": 847.8885586480546,
        "timestamp": "2025-12-09T11:33:54.442155+00:00",
        "meta_object_name": "FENGYUN 3C",
        "meta_object_id": "2013-052A",
        "meta_epoch": "2025-12-09T05:03:38.697120",
        "meta_mean_motion": 14.15694499,
        "meta_eccentricity": 0.0014082,
        "meta_inclination": 98.4759,
        "meta_ra_of_asc_node": 321.0626,
        "meta_arg_of_pericenter": 206.5137,
        "meta_mean_anomaly": 153.5319,
        "meta_ephemeris_type": 0,
        "meta_classification_type": "U",
        "meta_norad_cat_id": 39260,
        "meta_element_set_no": 999,
        "meta_rev_at_epoch": 63168,
        "meta_bstar": 0.00011897,
        "meta_mean_motion_dot": 1.92e-06,
        "meta_mean_motion_ddot": 0,
        "tle_line1": "1 39260U 13052A   25343.21086455  .00000192  00000+0  11897-3 0  9999",
        "tle_line2": "2 39260  98.4759 321.0626 0014082 206.5137 153.5319 14.15694499631686"
      },
      "geometry": {
        "type": "Point",
        "coordinates": [
          -24.672341271104706,
          -58.36428302591844
        ]
      }
    }
  ]
}